NORAD_CAT_ID,OBJECT_NAME,OBJECT_TYPE,EPOCH,MEAN_MOTION,ECCENTRICITY,INCLINATION,RA_OF_ASC_NODE,ARG_OF_PERICENTER,MEAN_ANOMALY,BSTAR,MEAN_MOTION_DOT,MEAN_MOTION_DDOT,TLE_LINE0,TLE_LINE1,TLE_LINE2,SEMIMAJOR_AXIS,PERIOD,APOGEE,PERIGEE,DECAYED
49459.0,STARLINK-3141,PAYLOAD,2023-03-25 03:30:06,15.08852753,9.18e-05,53.2172,29.87,107.625,252.4842,0.00033761,5.091e-05,0.0,0 STARLINK-3141,1 49459U 21104BD  23084.14590420  .00005091  00000-0  33761-3 0  9999,2 49459  53.2172  29.8700 0000918 107.6250 252.4842 15.08852753 76721,6917.841,95.437,540.341,539.071,0.0
49459.0,STARLINK-3141,PAYLOAD,2023-03-25 05:05:29,15.08857578,8.43e-05,53.2174,29.5709,86.6492,273.4597,0.00052532,8.087e-05,0.0,0 STARLINK-3141,1 49459U 21104BD  23084.21214349  .00008087  00000-0  52532-3 0  9995,2 49459  53.2174  29.5709 0000843  86.6492 273.4597 15.08857578 75662,6917.827,95.436,540.275,539.108,0.0
49459.0,STARLINK-3141,PAYLOAD,2023-03-26 04:56:17,15.08820525,7.55e-05,53.2167,25.1076,80.1583,279.9495,0.00039302,5.969e-05,0.0,0 STARLINK-3141,1 49459U 21104BD  23085.20575748  .00005969  00000-0  39302-3 0  9994,2 49459  53.2167  25.1076 0000755  80.1583 279.9495 15.08820525 76880,6917.94,95.439,540.327,539.283,0.0
49459.0,STARLINK-3141,PAYLOAD,2023-03-26 06:31:40,15.08824409,8.03e-05,53.2169,24.8107,80.3085,279.7998,0.00014319,1.991e-05,0.0,0 STARLINK-3141,1 49459U 21104BD  23085.27199656  .00001991  00000-0  14319-3 0  9993,2 49459  53.2169  24.8107 0000803  80.3085 279.7998 15.08824409 75820,6917.928,95.439,540.349,539.238,0.0
49459.0,STARLINK-3141,PAYLOAD,2023-03-27 04:47:04,15.0884624,9.76e-05,53.2172,20.6485,64.6972,295.4121,0.00049112,7.538e-05,0.0,0 STARLINK-3141,1 49459U 21104BD  23086.19935923  .00007538  00000-0  49112-3 0  9992,2 49459  53.2172  20.6485 0000976  64.6972 295.4121 15.08846240 77033,6917.861,95.437,540.401,539.051,0.0
49459.0,STARLINK-3141,PAYLOAD,2023-03-28 04:37:51,15.08851011,0.0001044,53.2168,16.1877,67.6525,292.4578,0.0004327,6.607e-05,0.0,0 STARLINK-3141,1 49459U 21104BD  23087.19295865  .00006607  00000-0  43270-3 0  9992,2 49459  53.2168  16.1877 0001044  67.6525 292.4578 15.08851011 77188,6917.847,95.437,540.434,538.99,0.0
49459.0,STARLINK-3141,PAYLOAD,2023-03-28 18:56:20,15.08837725,0.0001287,53.2167,13.5138,64.0299,296.0826,7.8455e-05,9.61e-06,0.0,0 STARLINK-3141,1 49459U 21104BD  23087.78912768  .00000961  00000-0  78455-4 0  9996,2 49459  53.2167  13.5138 0001287  64.0299 296.0826 15.08837725 77278,6917.887,95.438,540.643,538.862,0.0
49459.0,STARLINK-3141,PAYLOAD,2023-03-29 04:28:38,15.08846378,0.000103,53.216,11.7267,98.5217,261.5892,0.00065551,0.00010162,0.0,0 STARLINK-3141,1 49459U 21104BD  23088.18656174  .00010162  00000-0  65551-3 0  9993,2 49459  53.2160  11.7267 0001030  98.5217 261.5892 15.08846378 77333,6917.861,95.437,540.438,539.013,0.0
49459.0,STARLINK-3141,PAYLOAD,2023-03-30 04:19:25,15.08861718,0.0001294,53.2167,7.2661,102.6361,257.4775,0.001039,0.00016296,0.0,0 STARLINK-3141,1 49459U 21104BD  23089.18016106  .00016296  00000-0  10390-2 0  9993,2 49459  53.2167   7.2661 0001294 102.6361 257.4775 15.08861718 77482,6917.814,95.436,540.574,538.784,0.0
49459.0,STARLINK-3141,PAYLOAD,2023-03-31 04:10:13,15.08836654,0.000149,53.2169,2.8044,120.0833,240.0307,0.00020498,2.976e-05,0.0,0 STARLINK-3141,1 49459U 21104BD  23090.17376988  .00002976  00000-0  20498-3 0  9992,2 49459  53.2169   2.8044 0001490 120.0833 240.0307 15.08836654 77633,6917.891,95.438,540.786,538.725,0.0
49459.0,STARLINK-3141,PAYLOAD,2023-04-01 02:25:37,15.08874465,0.0001297,53.2181,358.6428,79.6114,280.5024,0.0013307,0.00020973,0.0,0 STARLINK-3141,1 49459U 21104BD  23091.10112351  .00020973  00000-0  13307-2 0  9995,2 49459  53.2181 358.6428 0001297  79.6114 280.5024 15.08874465 77773,6917.775,95.435,540.537,538.743,0.0
49459.0,STARLINK-3141,PAYLOAD,2023-04-01 04:01:00,15.08879168,0.0001298,53.2181,358.3456,80.9411,279.1728,0.0014065,0.00022191,0.0,0 STARLINK-3141,1 49459U 21104BD  23091.16736159  .00022191  00000-0  14065-2 0  9995,2 49459  53.2181 358.3456 0001298  80.9411 279.1728 15.08879168 76710,6917.761,95.435,540.524,538.728,0.0
49459.0,STARLINK-3141,PAYLOAD,2023-04-02 00:41:01,15.08838351,0.0001066,53.2175,354.4805,98.7084,261.4029,0.0012217,0.00019208,0.0,0 STARLINK-3141,1 49459U 21104BD  23092.02849093  .00019208  00000-0  12217-2 0  9995,2 49459  53.2175 354.4805 0001066  98.7084 261.4029 15.08838351 77914,6917.885,95.438,540.488,539.013,0.0
49459.0,STARLINK-3141,PAYLOAD,2023-04-02 16:34:52,15.08853478,0.000131,53.2167,351.5092,114.498,245.6149,0.0011865,0.00018653,0.0,0 STARLINK-3141,1 49459U 21104BD  23092.69089061  .00018653  00000-0  11865-2 0  9990,2 49459  53.2167 351.5092 0001310 114.4980 245.6149 15.08853478 78010,6917.839,95.437,540.61,538.798,0.0
49459.0,STARLINK-3141,PAYLOAD,2023-04-02 21:21:02,15.08852181,8.39e-05,53.2161,350.6161,104.6176,255.491,0.00079752,0.00012432,0.0,0 STARLINK-3141,1 49459U 21104BD  23092.88960978  .00012432  00000-0  79752-3 0  9995,2 49459  53.2161 350.6161 0000839 104.6176 255.4910 15.08852181 76972,6917.843,95.437,540.289,539.128,0.0
49459.0,STARLINK-3141,PAYLOAD,2023-04-03 02:07:11,15.08860144,9.12e-05,53.2166,349.7243,107.7534,252.3557,0.00090239,0.00014111,0.0,0 STARLINK-3141,1 49459U 21104BD  23093.08832697  .00014111  00000-0  90239-3 0  9993,2 49459  53.2166 349.7243 0000912 107.7534 252.3557 15.08860144 78075,6917.819,95.436,540.315,539.053,0.0
49459.0,STARLINK-3141,PAYLOAD,2023-04-03 21:11:49,15.08843436,0.0001033,53.216,346.1557,100.4767,259.6342,0.00016723,2.375e-05,0.0,0 STARLINK-3141,1 49459U 21104BD  23093.88320851  .00002375  00000-0  16723-3 0  9990,2 49459  53.2160 346.1557 0001033 100.4767 259.6342 15.08843436 78191,6917.87,95.437,540.45,539.02,0.0
49459.0,STARLINK-3141,PAYLOAD,2023-04-04 03:33:21,15.08846274,9.22e-05,53.216,344.9654,98.4968,261.6128,0.00019394,2.801e-05,0.0,0 STARLINK-3141,1 49459U 21104BD  23094.14816806  .00002801  00000-0  19394-3 0  9991,2 49459  53.2160 344.9654 0000922  98.4968 261.6128 15.08846274 77164,6917.861,95.437,540.364,539.088,0.0
49459.0,STARLINK-3141,PAYLOAD,2023-04-04 21:02:36,15.08842825,9.19e-05,53.2161,341.6944,86.4644,273.6453,0.00012389,1.685e-05,0.0,0 STARLINK-3141,1 49459U 21104BD  23094.87680931  .00001685  00000-0  12389-3 0  9995,2 49459  53.2161 341.6944 0000919  86.4644 273.6453 15.08842825 77279,6917.872,95.437,540.373,539.101,0.0
49459.0,STARLINK-3141,PAYLOAD,2023-04-05 01:48:45,15.08847189,9.27e-05,53.2165,340.8022,88.5277,271.5821,0.00016797,2.387e-05,0.0,0 STARLINK-3141,1 49459U 21104BD  23095.07552771  .00002387  00000-0  16797-3 0  9995,2 49459  53.2165 340.8022 0000927  88.5277 271.5821 15.08847189 78371,6917.858,95.437,540.365,539.082,0.0
49459.0,STARLINK-3141,PAYLOAD,2023-04-05 20:53:23,15.08840763,0.0001175,53.216,337.2339,84.1905,275.9221,0.000128,1.75e-05,0.0,0 STARLINK-3141,1 49459U 21104BD  23095.87041180  .00001750  00000-0  12800-3 0  9994,2 49459  53.2160 337.2339 0001175  84.1905 275.9221 15.08840763 77421,6917.878,95.438,540.556,538.93,0.0
49459.0,STARLINK-3141,PAYLOAD,2023-04-06 01:39:32,15.08843947,9.89e-05,53.2165,336.3427,90.1657,269.9449,0.00019983,2.894e-05,0.0,0 STARLINK-3141,1 49459U 21104BD  23096.06912929  .00002894  00000-0  19983-3 0  9993,2 49459  53.2165 336.3427 0000989  90.1657 269.9449 15.08843947 78521,6917.868,95.437,540.418,539.049,0.0
49459.0,STARLINK-3141,PAYLOAD,2023-04-07 01:30:20,15.08837474,0.0001072,53.2161,331.8808,107.7227,252.3882,0.00014015,1.943e-05,0.0,0 STARLINK-3141,1 49459U 21104BD  23097.06273515  .00001943  00000-0  14015-3 0  9990,2 49459  53.2161 331.8808 0001072 107.7227 252.3882 15.08837474 78673,6917.888,95.438,540.495,539.012,0.0
49459.0,STARLINK-3141,PAYLOAD,2023-04-07 23:45:44,15.08837037,0.0001082,53.2162,327.7187,90.6466,269.465,0.00039643,6.026e-05,0.0,0 STARLINK-3141,1 49459U 21104BD  23097.99009630  .00006026  00000-0  39643-3 0  9998,2 49459  53.2162 327.7187 0001082  90.6466 269.4650 15.08837037 77748,6917.889,95.438,540.503,539.006,0.0
49459.0,STARLINK-3141,PAYLOAD,2023-04-09 01:11:54,15.08839476,0.0001186,53.2159,322.9615,87.3714,272.7414,3.2051e-05,2.22e-06,0.0,0 STARLINK-3141,1 49459U 21104BD  23099.04993550  .00000222  00000-0  32051-4 0  9998,2 49459  53.2159 322.9615 0001186  87.3714 272.7414 15.08839476 78971,6917.882,95.438,540.567,538.927,0.0
49459.0,STARLINK-3141,PAYLOAD,2023-04-09 21:51:55,15.08835829,0.0001172,53.217,319.0974,105.4665,254.6457,0.00010879,1.444e-05,0.0,0 STARLINK-3141,1 49459U 21104BD  23099.91106046  .00001444  00000-0  10879-3 0  9990,2 49459  53.2170 319.0974 0001172 105.4665 254.6457 15.08835829 78032,6917.893,95.438,540.569,538.947,0.0
49459.0,STARLINK-3141,PAYLOAD,2023-04-10 01:02:41,15.08841159,0.0001155,53.2158,318.5006,92.627,267.4855,0.00014899,2.084e-05,0.0,0 STARLINK-3141,1 49459U 21104BD  23100.04353633  .00002084  00000-0  14899-3 0  9990,2 49459  53.2158 318.5006 0001155  92.6270 267.4855 15.08841159 78057,6917.877,95.437,540.541,538.943,0.0
49459.0,STARLINK-3141,PAYLOAD,2023-04-11 00:53:28,15.08843797,0.0001056,53.2158,314.0394,93.2451,266.8662,0.00011939,1.613e-05,0.0,0 STARLINK-3141,1 49459U 21104BD  23101.03713513  .00001613  00000-0  11939-3 0  9996,2 49459  53.2158 314.0394 0001056  93.2451 266.8662 15.08843797 79270,6917.869,95.437,540.464,539.003,0.0
49459.0,STARLINK-3141,PAYLOAD,2023-04-11 21:33:29,15.08836576,0.0001069,53.2162,310.1737,96.4473,263.6641,-3.7527e-05,-8.85e-06,0.0,0 STARLINK-3141,1 49459U 21104BD  23101.89826062 -.00000885  00000-0 -37527-4 0  9998,2 49459  53.2162 310.1737 0001069  96.4473 263.6641 15.08836576 78331,6917.891,95.438,540.495,539.016,0.0
49459.0,STARLINK-3141,PAYLOAD,2023-04-12 13:27:21,15.08839253,0.0001057,53.2159,307.1997,93.9559,266.1554,7.0206e-05,8.3e-06,0.0,0 STARLINK-3141,1 49459U 21104BD  23102.56066072  .00000830  00000-0  70206-4 0  9999,2 49459  53.2159 307.1997 0001057  93.9559 266.1554 15.08839253 78432,6917.883,95.438,540.479,539.016,0.0
